CCSDS_OMM_VERS = 2.0
CREATION_DATE  = 
ORIGINATOR     = 

OBJECT_NAME    = SL-14 R/B
OBJECT_ID      = 1986-046B
CENTER_NAME    = EARTH
REF_FRAME      = TEME
TIME_SYSTEM    = UTC
MEAN_ELEMENT_THEORY = SGP/SGP4

EPOCH          = 2026-03-03T11:25:21.183168
MEAN_MOTION    = 14.85583205
ECCENTRICITY   = .0021653
INCLINATION    = 82.4782
RA_OF_ASC_NODE = 86.0548
ARG_OF_PERICENTER = 247.1070
MEAN_ANOMALY   = 112.7861

EPHEMERIS_TYPE = 0
CLASSIFICATION_TYPE = U
NORAD_CAT_ID   = 16792
ELEMENT_SET_NO = 999
REV_AT_EPOCH   = 12548
BSTAR          = .66648E-4
MEAN_MOTION_DOT = .602E-5
MEAN_MOTION_DDOT = 0

CCSDS_OMM_VERS = 2.0
CREATION_DATE  = 
ORIGINATOR     = 

OBJECT_NAME    = SL-14 R/B
OBJECT_ID      = 1986-055B
CENTER_NAME    = EARTH
REF_FRAME      = TEME
TIME_SYSTEM    = UTC
MEAN_ELEMENT_THEORY = SGP/SGP4

EPOCH          = 2026-03-03T06:29:37.023360
MEAN_MOTION    = 14.85635749
ECCENTRICITY   = .0018742
INCLINATION    = 82.5212
RA_OF_ASC_NODE = 132.7072
ARG_OF_PERICENTER = 358.2397
MEAN_ANOMALY   = 67.8120

EPHEMERIS_TYPE = 0
CLASSIFICATION_TYPE = U
NORAD_CAT_ID   = 16882
ELEMENT_SET_NO = 999
REV_AT_EPOCH   = 11841
BSTAR          = .65311E-4
MEAN_MOTION_DOT = .591E-5
MEAN_MOTION_DDOT = 0

CCSDS_OMM_VERS = 2.0
CREATION_DATE  = 
ORIGINATOR     = 

OBJECT_NAME    = AJISAI (EGS)
OBJECT_ID      = 1986-061A
CENTER_NAME    = EARTH
REF_FRAME      = TEME
TIME_SYSTEM    = UTC
MEAN_ELEMENT_THEORY = SGP/SGP4

EPOCH          = 2026-03-03T10:54:54.603360
MEAN_MOTION    = 12.44515534
ECCENTRICITY   = .001125
INCLINATION    = 50.0081
RA_OF_ASC_NODE = 112.5206
ARG_OF_PERICENTER = 270.9667
MEAN_ANOMALY   = 172.9183

EPHEMERIS_TYPE = 0
CLASSIFICATION_TYPE = U
NORAD_CAT_ID   = 16908
ELEMENT_SET_NO = 999
REV_AT_EPOCH   = 46722
BSTAR          = .16548E-3
MEAN_MOTION_DOT = -.74E-6
MEAN_MOTION_DDOT = 0

CCSDS_OMM_VERS = 2.0
CREATION_DATE  = 
ORIGINATOR     = 

OBJECT_NAME    = SL-14 R/B
OBJECT_ID      = 1987-024B
CENTER_NAME    = EARTH
REF_FRAME      = TEME
TIME_SYSTEM    = UTC
MEAN_ELEMENT_THEORY = SGP/SGP4

EPOCH          = 2026-03-03T04:11:56.176800
MEAN_MOTION    = 14.86124633
ECCENTRICITY   = .0016688
INCLINATION    = 82.5253
RA_OF_ASC_NODE = 98.8885
ARG_OF_PERICENTER = 283.4998
MEAN_ANOMALY   = 76.4359

EPHEMERIS_TYPE = 0
CLASSIFICATION_TYPE = U
NORAD_CAT_ID   = 17567
ELEMENT_SET_NO = 999
REV_AT_EPOCH   = 8716
BSTAR          = .58038E-4
MEAN_MOTION_DOT = .534E-5
MEAN_MOTION_DDOT = 0

CCSDS_OMM_VERS = 2.0
CREATION_DATE  = 
ORIGINATOR     = 

OBJECT_NAME    = COSMOS 1833
OBJECT_ID      = 1987-027A
CENTER_NAME    = EARTH
REF_FRAME      = TEME
TIME_SYSTEM    = UTC
MEAN_ELEMENT_THEORY = SGP/SGP4

EPOCH          = 2026-03-03T04:56:43.095840
MEAN_MOTION    = 14.13056167
ECCENTRICITY   = .0024558
INCLINATION    = 70.9233
RA_OF_ASC_NODE = 339.6445
ARG_OF_PERICENTER = 223.5148
MEAN_ANOMALY   = 136.4036

EPHEMERIS_TYPE = 0
CLASSIFICATION_TYPE = U
NORAD_CAT_ID   = 17589
ELEMENT_SET_NO = 999
REV_AT_EPOCH   = 940
BSTAR          = -.43123E-4
MEAN_MOTION_DOT = -.129E-5
MEAN_MOTION_DDOT = 0

CCSDS_OMM_VERS = 2.0
CREATION_DATE  = 
ORIGINATOR     = 

OBJECT_NAME    = SL-16 R/B
OBJECT_ID      = 1987-027B
CENTER_NAME    = EARTH
REF_FRAME      = TEME
TIME_SYSTEM    = UTC
MEAN_ELEMENT_THEORY = SGP/SGP4

EPOCH          = 2026-03-03T01:22:34.412736
MEAN_MOTION    = 14.17166526
ECCENTRICITY   = .0003734
INCLINATION    = 71.0020
RA_OF_ASC_NODE = 290.4721
ARG_OF_PERICENTER = 156.8780
MEAN_ANOMALY   = 203.2513

EPHEMERIS_TYPE = 0
CLASSIFICATION_TYPE = U
NORAD_CAT_ID   = 17590
ELEMENT_SET_NO = 999
REV_AT_EPOCH   = 1440
BSTAR          = -.6789E-4
MEAN_MOTION_DOT = -.185E-5
MEAN_MOTION_DDOT = 0

CCSDS_OMM_VERS = 2.0
CREATION_DATE  = 
ORIGINATOR     = 

OBJECT_NAME    = SL-14 R/B
OBJECT_ID      = 1987-038B
CENTER_NAME    = EARTH
REF_FRAME      = TEME
TIME_SYSTEM    = UTC
MEAN_ELEMENT_THEORY = SGP/SGP4

EPOCH          = 2026-03-03T03:59:52.122336
MEAN_MOTION    = 14.85362340
ECCENTRICITY   = .001911
INCLINATION    = 82.5014
RA_OF_ASC_NODE = 302.9529
ARG_OF_PERICENTER = 181.7294
MEAN_ANOMALY   = 178.3860

EPHEMERIS_TYPE = 0
CLASSIFICATION_TYPE = U
NORAD_CAT_ID   = 17912
ELEMENT_SET_NO = 999
REV_AT_EPOCH   = 7826
BSTAR          = .56822E-4
MEAN_MOTION_DOT = .514E-5
MEAN_MOTION_DDOT = 0

CCSDS_OMM_VERS = 2.0
CREATION_DATE  = 
ORIGINATOR     = 

OBJECT_NAME    = COSMOS 1844
OBJECT_ID      = 1987-041A
CENTER_NAME    = EARTH
REF_FRAME      = TEME
TIME_SYSTEM    = UTC
MEAN_ELEMENT_THEORY = SGP/SGP4

EPOCH          = 2026-03-03T09:20:56.090976
MEAN_MOTION    = 14.14553224
ECCENTRICITY   = .0029659
INCLINATION    = 70.8994
RA_OF_ASC_NODE = 47.4636
ARG_OF_PERICENTER = 27.3569
MEAN_ANOMALY   = 332.9107

EPHEMERIS_TYPE = 0
CLASSIFICATION_TYPE = U
NORAD_CAT_ID   = 17973
ELEMENT_SET_NO = 999
REV_AT_EPOCH   = 269
BSTAR          = -.1002E-4
MEAN_MOTION_DOT = -.68E-6
MEAN_MOTION_DDOT = 0

CCSDS_OMM_VERS = 2.0
CREATION_DATE  = 
ORIGINATOR     = 

OBJECT_NAME    = SL-14 R/B
OBJECT_ID      = 1987-055B
CENTER_NAME    = EARTH
REF_FRAME      = TEME
TIME_SYSTEM    = UTC
MEAN_ELEMENT_THEORY = SGP/SGP4

EPOCH          = 2026-03-03T06:42:17.986176
MEAN_MOTION    = 14.85620176
ECCENTRICITY   = .0021671
INCLINATION    = 82.5029
RA_OF_ASC_NODE = 355.0710
ARG_OF_PERICENTER = 38.2733
MEAN_ANOMALY   = 322.0016

EPHEMERIS_TYPE = 0
CLASSIFICATION_TYPE = U
NORAD_CAT_ID   = 18153
ELEMENT_SET_NO = 999
REV_AT_EPOCH   = 6898
BSTAR          = .84958E-4
MEAN_MOTION_DOT = .763E-5
MEAN_MOTION_DDOT = 0

CCSDS_OMM_VERS = 2.0
CREATION_DATE  = 
ORIGINATOR     = 

OBJECT_NAME    = COSMOS 1867
OBJECT_ID      = 1987-060A
CENTER_NAME    = EARTH
REF_FRAME      = TEME
TIME_SYSTEM    = UTC
MEAN_ELEMENT_THEORY = SGP/SGP4

EPOCH          = 2026-03-03T03:41:22.184736
MEAN_MOTION    = 14.31501790
ECCENTRICITY   = .0014388
INCLINATION    = 65.0120
RA_OF_ASC_NODE = 325.0088
ARG_OF_PERICENTER = 278.2415
MEAN_ANOMALY   = 81.7037

EPHEMERIS_TYPE = 0
CLASSIFICATION_TYPE = U
NORAD_CAT_ID   = 18187
ELEMENT_SET_NO = 999
REV_AT_EPOCH   = 1900
BSTAR          = .4014E-4
MEAN_MOTION_DOT = .7E-7
MEAN_MOTION_DDOT = 0

CCSDS_OMM_VERS = 2.0
CREATION_DATE  = 
ORIGINATOR     = 

OBJECT_NAME    = SL-14 R/B
OBJECT_ID      = 1988-001B
CENTER_NAME    = EARTH
REF_FRAME      = TEME
TIME_SYSTEM    = UTC
MEAN_ELEMENT_THEORY = SGP/SGP4

EPOCH          = 2026-03-03T11:25:51.904416
MEAN_MOTION    = 14.85518630
ECCENTRICITY   = .0016605
INCLINATION    = 82.5142
RA_OF_ASC_NODE = 201.2028
ARG_OF_PERICENTER = 257.9558
MEAN_ANOMALY   = 101.9797

EPHEMERIS_TYPE = 0
CLASSIFICATION_TYPE = U
NORAD_CAT_ID   = 18749
ELEMENT_SET_NO = 999
REV_AT_EPOCH   = 4110
BSTAR          = .85252E-4
MEAN_MOTION_DOT = .761E-5
MEAN_MOTION_DDOT = 0

